[{"OBJECT_NAME":"ONEWEB-0288","OBJECT_ID":"2021-075D","EPOCH":"2026-01-22T00:35:23.414784","MEAN_MOTION":13.12442279,"ECCENTRICITY":0.00018219,"INCLINATION":87.893,"RA_OF_ASC_NODE":19.6718,"ARG_OF_PERICENTER":91.3475,"MEAN_ANOMALY":268.7863,"EPHEMERIS_TYPE":0,"CLASSIFICATION_TYPE":"U","NORAD_CAT_ID":49078,"ELEMENT_SET_NO":999,"REV_AT_EPOCH":21601,"BSTAR":-0.00079796537,"MEAN_MOTION_DOT":-2.74e-6,"MEAN_MOTION_DDOT":0},{"OBJECT_NAME":"ONEWEB-0289","OBJECT_ID":"2021-075E","EPOCH":"2026-01-22T07:57:59.782752","MEAN_MOTION":13.17647825,"ECCENTRICITY":0.00016183,"INCLINATION":87.909,"RA_OF_ASC_NODE":34.8652,"ARG_OF_PERICENTER":104.558,"MEAN_ANOMALY":255.5731,"EPHEMERIS_TYPE":0,"CLASSIFICATION_TYPE":"U","NORAD_CAT_ID":49079,"ELEMENT_SET_NO":999,"REV_AT_EPOCH":21499,"BSTAR":0.00021761299,"MEAN_MOTION_DOT":9.7e-7,"MEAN_MOTION_DDOT":0},{"OBJECT_NAME":"ONEWEB-0290","OBJECT_ID":"2021-075F","EPOCH":"2026-01-22T07:19:19.509024","MEAN_MOTION":13.17650377,"ECCENTRICITY":0.00013775,"INCLINATION":87.9094,"RA_OF_ASC_NODE":34.8356,"ARG_OF_PERICENTER":104.8464,"MEAN_ANOMALY":255.282,"EPHEMERIS_TYPE":0,"CLASSIFICATION_TYPE":"U","NORAD_CAT_ID":49080,"ELEMENT_SET_NO":999,"REV_AT_EPOCH":21440,"BSTAR":0.00016021165,"MEAN_MOTION_DOT":7.5e-7,"MEAN_MOTION_DDOT":0},{"OBJECT_NAME":"ONEWEB-0291","OBJECT_ID":"2021-075G","EPOCH":"2026-01-22T06:57:26.877888","MEAN_MOTION":13.17651105,"ECCENTRICITY":0.000206,"INCLINATION":87.9097,"RA_OF_ASC_NODE":34.8464,"ARG_OF_PERICENTER":100.9912,"MEAN_ANOMALY":259.1452,"EPHEMERIS_TYPE":0,"CLASSIFICATION_TYPE":"U","NORAD_CAT_ID":49081,"ELEMENT_SET_NO":999,"REV_AT_EPOCH":21439,"BSTAR":5.0088671e-5,"MEAN_MOTION_DOT":3.2e-7,"MEAN_MOTION_DDOT":0},{"OBJECT_NAME":"ONEWEB-0293","OBJECT_ID":"2021-075H","EPOCH":"2026-01-22T07:33:53.948736","MEAN_MOTION":13.17646675,"ECCENTRICITY":0.00019622,"INCLINATION":87.9085,"RA_OF_ASC_NODE":34.8576,"ARG_OF_PERICENTER":95.7799,"MEAN_ANOMALY":264.3556,"EPHEMERIS_TYPE":0,"CLASSIFICATION_TYPE":"U","NORAD_CAT_ID":49082,"ELEMENT_SET_NO":999,"REV_AT_EPOCH":21442,"BSTAR":0.0023003965,"MEAN_MOTION_DOT":9.06e-6,"MEAN_MOTION_DDOT":0},{"OBJECT_NAME":"ONEWEB-0294","OBJECT_ID":"2021-075J","EPOCH":"2026-01-22T06:14:29.133888","MEAN_MOTION":13.12444545,"ECCENTRICITY":0.00015833,"INCLINATION":87.8939,"RA_OF_ASC_NODE":19.6276,"ARG_OF_PERICENTER":97.9654,"MEAN_ANOMALY":262.1655,"EPHEMERIS_TYPE":0,"CLASSIFICATION_TYPE":"U","NORAD_CAT_ID":49083,"ELEMENT_SET_NO":999,"REV_AT_EPOCH":21543,"BSTAR":-0.0011409066,"MEAN_MOTION_DOT":-3.98e-6,"MEAN_MOTION_DDOT":0},{"OBJECT_NAME":"ONEWEB-0295","OBJECT_ID":"2021-075K","EPOCH":"2026-01-22T07:32:41.191296","MEAN_MOTION":13.17640909,"ECCENTRICITY":0.00024506,"INCLINATION":87.9087,"RA_OF_ASC_NODE":34.8621,"ARG_OF_PERICENTER":102.7076,"MEAN_ANOMALY":257.433,"EPHEMERIS_TYPE":0,"CLASSIFICATION_TYPE":"U","NORAD_CAT_ID":49084,"ELEMENT_SET_NO":999,"REV_AT_EPOCH":21438,"BSTAR":-0.0015620153,"MEAN_MOTION_DOT":-5.93e-6,"MEAN_MOTION_DDOT":0},{"OBJECT_NAME":"ONEWEB-0296","OBJECT_ID":"2021-075L","EPOCH":"2026-01-22T00:15:52.117632","MEAN_MOTION":13.12440792,"ECCENTRICITY":0.00020124,"INCLINATION":87.8932,"RA_OF_ASC_NODE":19.6803,"ARG_OF_PERICENTER":97.1348,"MEAN_ANOMALY":263.001,"EPHEMERIS_TYPE":0,"CLASSIFICATION_TYPE":"U","NORAD_CAT_ID":49085,"ELEMENT_SET_NO":999,"REV_AT_EPOCH":21540,"BSTAR":-0.0011058838,"MEAN_MOTION_DOT":-3.85e-6,"MEAN_MOTION_DDOT":0},{"OBJECT_NAME":"ONEWEB-0297","OBJECT_ID":"2021-075M","EPOCH":"2026-01-22T06:29:08.456928","MEAN_MOTION":13.12445423,"ECCENTRICITY":0.00018738,"INCLINATION":87.8928,"RA_OF_ASC_NODE":19.6576,"ARG_OF_PERICENTER":89.0906,"MEAN_ANOMALY":271.0437,"EPHEMERIS_TYPE":0,"CLASSIFICATION_TYPE":"U","NORAD_CAT_ID":49086,"ELEMENT_SET_NO":999,"REV_AT_EPOCH":21604,"BSTAR":0.00044452198,"MEAN_MOTION_DOT":1.73e-6,"MEAN_MOTION_DDOT":0},{"OBJECT_NAME":"ONEWEB-0298","OBJECT_ID":"2021-075N","EPOCH":"2026-01-22T02:10:53.904288","MEAN_MOTION":13.17646429,"ECCENTRICITY":0.00019525,"INCLINATION":87.9082,"RA_OF_ASC_NODE":34.9034,"ARG_OF_PERICENTER":87.7268,"MEAN_ANOMALY":272.4087,"EPHEMERIS_TYPE":0,"CLASSIFICATION_TYPE":"U","NORAD_CAT_ID":49087,"ELEMENT_SET_NO":999,"REV_AT_EPOCH":21438,"BSTAR":4.3149345e-5,"MEAN_MOTION_DOT":3.0e-7,"MEAN_MOTION_DDOT":0},{"OBJECT_NAME":"ONEWEB-0299","OBJECT_ID":"2021-075P","EPOCH":"2026-01-22T07:41:10.985856","MEAN_MOTION":13.17651408,"ECCENTRICITY":0.00019921,"INCLINATION":87.9094,"RA_OF_ASC_NODE":34.8236,"ARG_OF_PERICENTER":92.9882,"MEAN_ANOMALY":267.1478,"EPHEMERIS_TYPE":0,"CLASSIFICATION_TYPE":"U","NORAD_CAT_ID":49088,"ELEMENT_SET_NO":999,"REV_AT_EPOCH":21439,"BSTAR":2.274916e-5,"MEAN_MOTION_DOT":2.2e-7,"MEAN_MOTION_DDOT":0},{"OBJECT_NAME":"ONEWEB-0300","OBJECT_ID":"2021-075Q","EPOCH":"2026-01-22T06:18:10.144224","MEAN_MOTION":13.12445835,"ECCENTRICITY":0.00019535,"INCLINATION":87.8939,"RA_OF_ASC_NODE":19.6231,"ARG_OF_PERICENTER":77.6203,"MEAN_ANOMALY":282.5144,"EPHEMERIS_TYPE":0,"CLASSIFICATION_TYPE":"U","NORAD_CAT_ID":49089,"ELEMENT_SET_NO":999,"REV_AT_EPOCH":21606,"BSTAR":-0.00018324281,"MEAN_MOTION_DOT":-5.3e-7,"MEAN_MOTION_DDOT":0},{"OBJECT_NAME":"ONEWEB-0301","OBJECT_ID":"2021-075R","EPOCH":"2026-01-22T05:54:58.009536","MEAN_MOTION":13.12441099,"ECCENTRICITY":0.00018659,"INCLINATION":87.8933,"RA_OF_ASC_NODE":19.6272,"ARG_OF_PERICENTER":76.5322,"MEAN_ANOMALY":283.6014,"EPHEMERIS_TYPE":0,"CLASSIFICATION_TYPE":"U","NORAD_CAT_ID":49090,"ELEMENT_SET_NO":999,"REV_AT_EPOCH":21542,"BSTAR":-0.0012266627,"MEAN_MOTION_DOT":-4.29e-6,"MEAN_MOTION_DDOT":0},{"OBJECT_NAME":"ONEWEB-0302","OBJECT_ID":"2021-075S","EPOCH":"2026-01-22T05:35:28.301280","MEAN_MOTION":13.12442755,"ECCENTRICITY":0.00017466,"INCLINATION":87.8935,"RA_OF_ASC_NODE":19.6386,"ARG_OF_PERICENTER":99.6261,"MEAN_ANOMALY":260.5065,"EPHEMERIS_TYPE":0,"CLASSIFICATION_TYPE":"U","NORAD_CAT_ID":49091,"ELEMENT_SET_NO":999,"REV_AT_EPOCH":21540,"BSTAR":-0.00070945948,"MEAN_MOTION_DOT":-2.43e-6,"MEAN_MOTION_DDOT":0},{"OBJECT_NAME":"ONEWEB-0304","OBJECT_ID":"2021-075T","EPOCH":"2026-01-22T01:36:42.413184","MEAN_MOTION":13.17648343,"ECCENTRICITY":0.00019228,"INCLINATION":87.9095,"RA_OF_ASC_NODE":34.9043,"ARG_OF_PERICENTER":93.3053,"MEAN_ANOMALY":266.8298,"EPHEMERIS_TYPE":0,"CLASSIFICATION_TYPE":"U","NORAD_CAT_ID":49092,"ELEMENT_SET_NO":999,"REV_AT_EPOCH":21433,"BSTAR":-8.3003601e-5,"MEAN_MOTION_DOT":-1.9e-7,"MEAN_MOTION_DDOT":0},{"OBJECT_NAME":"ONEWEB-0305","OBJECT_ID":"2021-075U","EPOCH":"2026-01-22T06:55:02.110368","MEAN_MOTION":13.17650531,"ECCENTRICITY":0.00022385,"INCLINATION":87.9096,"RA_OF_ASC_NODE":34.8382,"ARG_OF_PERICENTER":94.9081,"MEAN_ANOMALY":265.2306,"EPHEMERIS_TYPE":0,"CLASSIFICATION_TYPE":"U","NORAD_CAT_ID":49093,"ELEMENT_SET_NO":999,"REV_AT_EPOCH":21439,"BSTAR":1.417123e-5,"MEAN_MOTION_DOT":1.8e-7,"MEAN_MOTION_DDOT":0},{"OBJECT_NAME":"ONEWEB-0308","OBJECT_ID":"2021-075V","EPOCH":"2026-01-22T05:25:42.376224","MEAN_MOTION":13.12439987,"ECCENTRICITY":0.00017598,"INCLINATION":87.8937,"RA_OF_ASC_NODE":19.633,"ARG_OF_PERICENTER":88.0811,"MEAN_ANOMALY":272.0519,"EPHEMERIS_TYPE":0,"CLASSIFICATION_TYPE":"U","NORAD_CAT_ID":49094,"ELEMENT_SET_NO":999,"REV_AT_EPOCH":21541,"BSTAR":-3.4314052e-5,"MEAN_MOTION_DOT":0,"MEAN_MOTION_DDOT":0},{"OBJECT_NAME":"ONEWEB-0309","OBJECT_ID":"2021-075W","EPOCH":"2026-01-22T01:31:50.115936","MEAN_MOTION":13.17650812,"ECCENTRICITY":0.00017125,"INCLINATION":87.9097,"RA_OF_ASC_NODE":34.8983,"ARG_OF_PERICENTER":105.0688,"MEAN_ANOMALY":255.0633,"EPHEMERIS_TYPE":0,"CLASSIFICATION_TYPE":"U","NORAD_CAT_ID":49095,"ELEMENT_SET_NO":999,"REV_AT_EPOCH":21433,"BSTAR":-8.2378873e-5,"MEAN_MOTION_DOT":-1.9e-7,"MEAN_MOTION_DDOT":0},{"OBJECT_NAME":"ONEWEB-0310","OBJECT_ID":"2021-075X","EPOCH":"2026-01-22T05:47:38.923008","MEAN_MOTION":13.1244116,"ECCENTRICITY":0.00017706,"INCLINATION":87.8927,"RA_OF_ASC_NODE":19.6638,"ARG_OF_PERICENTER":88.4596,"MEAN_ANOMALY":271.6735,"EPHEMERIS_TYPE":0,"CLASSIFICATION_TYPE":"U","NORAD_CAT_ID":49096,"ELEMENT_SET_NO":999,"REV_AT_EPOCH":21604,"BSTAR":-0.00084548777,"MEAN_MOTION_DOT":-2.91e-6,"MEAN_MOTION_DDOT":0},{"OBJECT_NAME":"ONEWEB-0311","OBJECT_ID":"2021-075Y","EPOCH":"2026-01-22T01:41:34.209312","MEAN_MOTION":13.1764776,"ECCENTRICITY":0.00021746,"INCLINATION":87.9094,"RA_OF_ASC_NODE":34.892,"ARG_OF_PERICENTER":91.398,"MEAN_ANOMALY":268.74,"EPHEMERIS_TYPE":0,"CLASSIFICATION_TYPE":"U","NORAD_CAT_ID":49097,"ELEMENT_SET_NO":999,"REV_AT_EPOCH":21438,"BSTAR":-0.00016614937,"MEAN_MOTION_DOT":-5.2e-7,"MEAN_MOTION_DDOT":0},{"OBJECT_NAME":"ONEWEB-0312","OBJECT_ID":"2021-075Z","EPOCH":"2026-01-22T07:31:28.057152","MEAN_MOTION":13.17651017,"ECCENTRICITY":0.00020439,"INCLINATION":87.9081,"RA_OF_ASC_NODE":34.8659,"ARG_OF_PERICENTER":100.4196,"MEAN_ANOMALY":259.7166,"EPHEMERIS_TYPE":0,"CLASSIFICATION_TYPE":"U","NORAD_CAT_ID":49098,"ELEMENT_SET_NO":999,"REV_AT_EPOCH":21439,"BSTAR":-3.485772e-6,"MEAN_MOTION_DOT":1.2e-7,"MEAN_MOTION_DDOT":0},{"OBJECT_NAME":"ONEWEB-0313","OBJECT_ID":"2021-075AA","EPOCH":"2026-01-22T02:10:31.334880","MEAN_MOTION":13.1765012,"ECCENTRICITY":0.00019393,"INCLINATION":87.9082,"RA_OF_ASC_NODE":34.9172,"ARG_OF_PERICENTER":92.4622,"MEAN_ANOMALY":267.6732,"EPHEMERIS_TYPE":0,"CLASSIFICATION_TYPE":"U","NORAD_CAT_ID":49099,"ELEMENT_SET_NO":999,"REV_AT_EPOCH":21435,"BSTAR":5.1225732e-5,"MEAN_MOTION_DOT":3.3e-7,"MEAN_MOTION_DDOT":0},{"OBJECT_NAME":"ONEWEB-0314","OBJECT_ID":"2021-075AB","EPOCH":"2026-01-22T06:50:09.603168","MEAN_MOTION":13.17650486,"ECCENTRICITY":0.00021218,"INCLINATION":87.9095,"RA_OF_ASC_NODE":34.8361,"ARG_OF_PERICENTER":100.1961,"MEAN_ANOMALY":259.941,"EPHEMERIS_TYPE":0,"CLASSIFICATION_TYPE":"U","NORAD_CAT_ID":49100,"ELEMENT_SET_NO":999,"REV_AT_EPOCH":21435,"BSTAR":-7.1984303e-5,"MEAN_MOTION_DOT":-1.5e-7,"MEAN_MOTION_DDOT":0}]
